     2              NAVIGATION DATA                         RINEX VERSION / TYPE
CCRINEXN V1.6.0 UX  CDDIS               07-JAN-15 17:31     PGM / RUN BY / DATE 
IGS BROADCAST EPHEMERIS FILE                                COMMENT             
    0.1676D-07 -0.7451D-08 -0.5960D-07  0.1192D-06          ION ALPHA           
    0.1352D+06 -0.1802D+06  0.6554D+05  0.0000D+00          ION BETA            
    0.372529029846D-08 0.976996261670D-14   405504      802 DELTA-UTC: A0,A1,T,W
    16                                                      LEAP SECONDS        
                                                            END OF HEADER       
 1 15  1  6  0  0  0.0-0.104685314000D-04 0.341060513165D-12 0.000000000000D+00
    0.380000000000D+02-0.762500000000D+01 0.420838958203D-08 0.268421199490D+01
   -0.312924385071D-06 0.377794669475D-02 0.105388462544D-04 0.515367595482D+04
    0.172800000000D+06-0.260770320892D-07 0.579184919342D+00-0.689178705216D-07
    0.961846779659D+00 0.176937500000D+03 0.434593054408D+00-0.774282251964D-08
    0.559309011751D-09 0.100000000000D+01 0.182600000000D+04 0.000000000000D+00
    0.200000000000D+01 0.000000000000D+00 0.558793544769D-08 0.380000000000D+02
    0.172470000000D+06 0.400000000000D+01 0.000000000000D+00 0.000000000000D+00
 2 15  1  6  0  0  0.0 0.540146604180D-03 0.227373675443D-11 0.000000000000D+00
    0.330000000000D+02-0.837500000000D+01 0.451268797157D-08-0.293183210822D+01
   -0.506639480591D-06 0.141354538500D-01 0.116005539894D-04 0.515375116730D+04
    0.172800000000D+06 0.186264514923D-08 0.544699362743D+00-0.162050127983D-06
    0.940463639640D+00 0.141750000000D+03-0.234661743262D+01-0.770924969262D-08
    0.642169606085D-09 0.100000000000D+01 0.182600000000D+04 0.000000000000D+00
    0.200000000000D+01 0.000000000000D+00-0.204890966415D-07 0.330000000000D+02
    0.168108000000D+06 0.400000000000D+01 0.000000000000D+00 0.000000000000D+00
 3 15  1  6  0  0  0.0 0.128684565425D-03 0.262616595137D-10 0.000000000000D+00
    0.440000000000D+02 0.101875000000D+02 0.498520765391D-08-0.118261945550D+01
    0.379979610443D-06 0.962618272752D-03 0.454485416412D-05 0.515376552963D+04
    0.172800000000D+06 0.279396772385D-07 0.161979471978D+01 0.391155481338D-07
    0.958889180623D+00 0.287593750000D+03-0.301497398952D+01-0.825427239501D-08
    0.207865801302D-09 0.100000000000D+01 0.182600000000D+04 0.000000000000D+00
    0.200000000000D+01 0.000000000000D+00 0.558793544769D-08 0.440000000000D+02
    0.171870000000D+06 0.400000000000D+01 0.000000000000D+00 0.000000000000D+00
 4 15  1  6  0  0  0.0-0.524008646607D-05-0.568434188608D-12 0.000000000000D+00
    0.190000000000D+02-0.137812500000D+02 0.463090718159D-08 0.253744120565D+01
   -0.735744833946D-06 0.109882211546D-01 0.106841325760D-04 0.515374460220D+04
    0.172800000000D+06 0.968575477600D-07 0.560148713928D+00-0.169500708580D-06
    0.939478728580D+00 0.160500000000D+03 0.104968478452D+01-0.780961101593D-08
    0.550022910662D-09 0.100000000000D+01 0.182600000000D+04 0.000000000000D+00
    0.200000000000D+01 0.000000000000D+00-0.651925802231D-08 0.190000000000D+02
    0.170610000000D+06 0.400000000000D+01 0.000000000000D+00 0.000000000000D+00
 5 15  1  6  0  0  0.0-0.296709593386D-03 0.500222085975D-11 0.000000000000D+00
    0.330000000000D+02 0.659375000000D+01 0.530522115128D-08-0.610179404810D+00
    0.482425093651D-06 0.404301052913D-02 0.445917248726D-05 0.515373764038D+04
    0.172800000000D+06 0.577419996262D-07 0.161462332484D+01 0.111758708954D-07
    0.946183042219D+00 0.282343750000D+03 0.418900512111D+00-0.843749425883D-08
    0.184650544854D-09 0.100000000000D+01 0.182600000000D+04 0.000000000000D+00
    0.200000000000D+01 0.000000000000D+00-0.107102096081D-07 0.330000000000D+02
    0.172800000000D+06 0.000000000000D+00 0.000000000000D+00 0.000000000000D+00
 6 15  1  6  0  0  0.0 0.439002178609D-04 0.966338120634D-11 0.000000000000D+00
    0.930000000000D+02-0.931250000000D+01 0.421196115937D-08-0.731228409136D+00
   -0.424683094025D-06 0.493530533277D-03 0.109449028969D-04 0.515367486954D+04
    0.172800000000D+06-0.100582838059D-06 0.570649990480D+00-0.298023223877D-07
    0.961760322664D+00 0.169343750000D+03 0.234770134666D+01-0.772210737105D-08
    0.558594696283D-09 0.100000000000D+01 0.182600000000D+04 0.000000000000D+00
    0.200000000000D+01 0.000000000000D+00 0.465661287308D-08 0.930000000000D+02
    0.165618000000D+06 0.400000000000D+01 0.000000000000D+00 0.000000000000D+00
 7 15  1  6  0  0  0.0 0.428917817771D-03 0.341060513165D-11 0.000000000000D+00
    0.460000000000D+02 0.114875000000D+03 0.412624334700D-08 0.216069346670D+01
    0.598281621933D-05 0.796387321316D-02 0.894069671631D-05 0.515374855423D+04
    0.172800000000D+06-0.217929482460D-06-0.254399721451D+01 0.428408384323D-07
    0.971883825491D+00 0.215625000000D+03-0.275156510900D+01-0.782425413348D-08
    0.137862887772D-09 0.100000000000D+01 0.182600000000D+04 0.000000000000D+00
    0.200000000000D+01 0.000000000000D+00-0.111758708954D-07 0.460000000000D+02
    0.172800000000D+06 0.000000000000D+00 0.000000000000D+00 0.000000000000D+00
 8 15  1  6  0  0  0.0 0.170310959220D-04 0.227373675443D-12 0.000000000000D+00
    0.210000000000D+02 0.123531250000D+03 0.355800534806D-08-0.289304637415D+01
    0.628270208836D-05 0.147732503246D-01 0.844895839691D-05 0.515220652389D+04
    0.172800000000D+06-0.147148966789D-06-0.243968579971D+01-0.257045030594D-06
    0.995345615569D+00 0.232218750000D+03-0.267616240959D+01-0.743280960636D-08
    0.201079804352D-09 0.100000000000D+01 0.182600000000D+04 0.000000000000D+00
    0.280000000000D+01 0.630000000000D+02-0.465661287308D-08 0.210000000000D+02
    0.171870000000D+06 0.400000000000D+01 0.000000000000D+00 0.000000000000D+00
 9 15  1  6  0  0  0.0-0.467873178423D-04-0.106865627458D-10 0.000000000000D+00
    0.570000000000D+02-0.116250000000D+02 0.463090718159D-08-0.192173690785D+01
   -0.584870576858D-06 0.269690644927D-03 0.947155058384D-05 0.515367721939D+04
    0.172800000000D+06-0.167638063431D-07 0.266444573046D+01 0.167638063431D-07
    0.958731829155D+00 0.199406250000D+03 0.238306744096D+01-0.792568727955D-08
   -0.519664503255D-09 0.100000000000D+01 0.182600000000D+04 0.000000000000D+00
    0.200000000000D+01 0.000000000000D+00 0.465661287308D-09 0.570000000000D+02
    0.165618000000D+06 0.400000000000D+01 0.000000000000D+00 0.000000000000D+00
10 15  1  6  0  0  0.0-0.157513655722D-03-0.170530256582D-11 0.000000000000D+00
    0.480000000000D+02 0.690625000000D+01 0.554880255847D-08-0.277827702468D+00
    0.536441802978D-06 0.144909820519D-01 0.446476042271D-05 0.515363893509D+04
    0.172800000000D+06 0.186264514923D-08 0.163056686146D+01 0.175088644028D-06
    0.940974663257D+00 0.285218750000D+03 0.914236248284D+00-0.874965017234D-08
    0.146077513286D-09 0.100000000000D+01 0.182600000000D+04 0.000000000000D+00
    0.280000000000D+01 0.000000000000D+00-0.325962901115D-08 0.480000000000D+02
    0.165678000000D+06 0.400000000000D+01 0.000000000000D+00 0.000000000000D+00
11 15  1  6  0  0  0.0-0.548787415028D-03-0.272848410532D-11 0.000000000000D+00
    0.880000000000D+02-0.606562500000D+02 0.556344602557D-08 0.222874690016D+01
   -0.320002436638D-05 0.156157226302D-01 0.106953084469D-04 0.515372867012D+04
    0.172800000000D+06 0.244006514549D-06 0.238915902892D+00-0.214204192162D-06
    0.892474714263D+00 0.134093750000D+03 0.137309628873D+01-0.820784188956D-08
    0.310012913282D-09 0.100000000000D+01 0.182600000000D+04 0.000000000000D+00
    0.280000000000D+01 0.000000000000D+00-0.121071934700D-07 0.880000000000D+02
    0.165870000000D+06 0.400000000000D+01 0.000000000000D+00 0.000000000000D+00
12 15  1  6  0  0  0.0 0.259132590145D-03 0.295585778076D-11 0.000000000000D+00
    0.800000000000D+02 0.151875000000D+02 0.422731894194D-08 0.171473765839D+01
    0.717118382454D-06 0.511421973351D-02 0.689178705215D-06 0.515375458145D+04
    0.172800000000D+06-0.113621354103D-06-0.147731817733D+01 0.689178705216D-07
    0.988749222860D+00 0.380781250000D+03 0.498698856101D+00-0.826713007344D-08
   -0.553594488004D-10 0.100000000000D+01 0.182600000000D+04 0.000000000000D+00
    0.200000000000D+01 0.000000000000D+00-0.121071934700D-07 0.800000000000D+02
    0.168828000000D+06 0.400000000000D+01 0.000000000000D+00 0.000000000000D+00
13 15  1  6  0  0  0.0-0.760992988944D-04-0.341060513165D-11 0.000000000000D+00
    0.260000000000D+02 0.493750000000D+01 0.412874356925D-08 0.281424057034D+01
    0.195577740669D-06 0.586358574219D-02 0.103898346424D-04 0.515588332558D+04
    0.172800000000D+06 0.106170773506D-06 0.277729502482D+01 0.987201929092D-07
    0.975638432537D+00 0.185656250000D+03 0.219712866592D+01-0.756817275516D-08
   -0.545022693643D-09 0.100000000000D+01 0.182600000000D+04 0.000000000000D+00
    0.200000000000D+01 0.000000000000D+00-0.111758708954D-07 0.260000000000D+02
    0.172800000000D+06 0.000000000000D+00 0.000000000000D+00 0.000000000000D+00
14 15  1  6  0  0  0.0 0.995481386781D-04-0.352429196937D-11 0.000000000000D+00
    0.101000000000D+03-0.428125000000D+01 0.435375277985D-08-0.153390933897D+01
   -0.115483999252D-06 0.774240610190D-02 0.103004276752D-04 0.515377044868D+04
    0.172800000000D+06 0.139698386192D-06 0.274366890919D+01 0.949949026108D-07
    0.968117499008D+00 0.183750000000D+03-0.196826494129D+01-0.772496463293D-08
   -0.567523639638D-09 0.100000000000D+01 0.182600000000D+04 0.000000000000D+00
    0.200000000000D+01 0.000000000000D+00-0.931322574616D-08 0.101000000000D+03
    0.171870000000D+06 0.400000000000D+01 0.000000000000D+00 0.000000000000D+00
